0 OPTUS B1 (AUSSAT B1)
1 22087U 92054A   13285.71113446 -.00000322  00000-0  10000-3 0  8211
2 22087 006.4135 058.1444 0011128 030.2803 329.8462 00.99208634 88770
0 OPTUS B1 (AUSSAT B1)
1 22087U 92054A   13287.72700384 -.00000312  00000-0  10000-3 0  8227
2 22087 006.4174 058.1238 0011074 030.5087 329.6155 00.99207814 88799
0 OPTUS B1 (AUSSAT B1)
1 22087U 92054A   13289.74282951 -.00000284  00000-0  10000-3 0  8257
2 22087 006.4215 058.1028 0011020 030.8400 329.2605 00.99206849 88811
0 OPTUS B1 (AUSSAT B1)
1 22087U 92054A   13290.75073575  .00000000  00000-0  10000-3 0  8244
2 22087 006.4257 058.0887 0009288 031.8555 328.2262 00.99203095 88823
0 OPTUS B1 (AUSSAT B1)
1 22087U 92054A   13291.75863556 -.00000242  00000-0  10000-3 0  8262
2 22087 006.4255 058.0816 0011013 031.1244 328.9399 00.99205821 88838
0 OPTUS B1 (AUSSAT B1)
1 22087U 92054A   13293.77448521 -.00000189  00000-0  10000-3 0  8278
2 22087 006.4295 058.0602 0010746 031.5527 328.4825 00.99204811 88854
0 OPTUS B1 (AUSSAT B1)
1 22087U 92054A   13295.79039407 -.00000130  00000-0  10000-3 0  8288
2 22087 006.4337 058.0384 0010559 032.3247 327.7004 00.99203943 88876
